[{"OBJECT_NAME":"STARLINK-5875","OBJECT_ID":"2023-094D","EPOCH":"2026-03-09T06:34:47.217504","MEAN_MOTION":15.02533884,"ECCENTRICITY":0.00014002,"INCLINATION":43.0057,"RA_OF_ASC_NODE":32.9178,"ARG_OF_PERICENTER":270.3895,"MEAN_ANOMALY":89.6787,"EPHEMERIS_TYPE":0,"CLASSIFICATION_TYPE":"U","NORAD_CAT_ID":57221,"ELEMENT_SET_NO":999,"REV_AT_EPOCH":14705,"BSTAR":3.6773469e-5,"MEAN_MOTION_DOT":2.93e-6,"MEAN_MOTION_DDOT":0},{"OBJECT_NAME":"CZ-6A DEB","OBJECT_ID":"2022-151MM","EPOCH":"2026-03-09T16:36:35.308512","MEAN_MOTION":15.08432741,"ECCENTRICITY":0.0037582,"INCLINATION":98.6255,"RA_OF_ASC_NODE":147.7512,"ARG_OF_PERICENTER":182.2642,"MEAN_ANOMALY":177.8419,"EPHEMERIS_TYPE":0,"CLASSIFICATION_TYPE":"U","NORAD_CAT_ID":54585,"ELEMENT_SET_NO":999,"REV_AT_EPOCH":10505,"BSTAR":0.0062350664,"MEAN_MOTION_DOT":0.00099853,"MEAN_MOTION_DDOT":0}]
